NORAD_CAT_ID,OBJECT_NAME,OBJECT_TYPE,EPOCH,MEAN_MOTION,ECCENTRICITY,INCLINATION,RA_OF_ASC_NODE,ARG_OF_PERICENTER,MEAN_ANOMALY,BSTAR,MEAN_MOTION_DOT,MEAN_MOTION_DDOT,TLE_LINE0,TLE_LINE1,TLE_LINE2,SEMIMAJOR_AXIS,PERIOD,APOGEE,PERIGEE,DECAYED
53744.0,STARLINK-4670,PAYLOAD,2024-06-19 05:39:28,15.08833571,0.0001024,53.2154,204.9846,93.3479,266.763,8.6549e-05,1.09e-05,0.0,0 STARLINK-4670,1 53744U 22107AW  24171.23574554  .00001090  00000-0  86549-4 0  9991,2 53744  53.2154 204.9846 0001024  93.3479 266.7630 15.08833571 98941,6917.9,95.438,540.473,539.057,0.0
53744.0,STARLINK-4670,PAYLOAD,2024-06-19 08:50:14,15.08832531,0.0001037,53.2153,204.3901,91.8013,268.3098,7.2392e-05,8.64e-06,0.0,0 STARLINK-4670,1 53744U 22107AW  24171.36822713  .00000864  00000-0  72392-4 0  9997,2 53744  53.2153 204.3901 0001037  91.8013 268.3098 15.08832531 99747,6917.903,95.438,540.486,539.051,0.0
53744.0,STARLINK-4670,PAYLOAD,2024-06-20 05:30:15,15.08843531,0.0001228,53.2172,200.5257,90.7846,269.3286,1.5315e-05,-4.4e-07,0.0,0 STARLINK-4670,1 53744U 22107AW  24172.22934227 -.00000044  00000-0  15315-4 0  9990,2 53744  53.2172 200.5257 0001228  90.7846 269.3286 15.08843531 99094,6917.87,95.437,540.584,538.885,0.0
53744.0,STARLINK-4670,PAYLOAD,2024-06-20 08:41:01,15.08836176,0.0001191,53.217,199.9314,91.1299,268.983,0.00012462,1.696e-05,0.0,0 STARLINK-4670,1 53744U 22107AW  24172.36182465  .00001696  00000-0  12462-3 0  9996,2 53744  53.2170 199.9314 0001191  91.1299 268.9830 15.08836176 99898,6917.892,95.438,540.581,538.933,0.0
53744.0,STARLINK-4670,PAYLOAD,2024-06-21 05:21:02,15.0883392,0.0001152,53.2161,196.0647,89.7517,270.3607,8.0263e-05,9.9e-06,0.0,0 STARLINK-4670,1 53744U 22107AW  24173.22294628  .00000990  00000-0  80263-4 0  9998,2 53744  53.2161 196.0647 0001152  89.7517 270.3607 15.08833920 99240,6917.899,95.438,540.561,538.967,0.0
53744.0,STARLINK-4670,PAYLOAD,2024-06-21 08:31:48,15.08834072,0.0001104,53.2159,195.4692,87.6565,272.4554,5.6428e-05,6.1e-06,0.0,0 STARLINK-4670,1 53744U 22107AW  24173.35542727  .00000610  00000-0  56428-4 0  9993,2 53744  53.2159 195.4692 0001104  87.6565 272.4554 15.08834072100041,6917.899,95.438,540.527,539.0,0.0
53744.0,STARLINK-4670,PAYLOAD,2024-06-22 09:57:59,15.08834423,0.0001111,53.2157,190.7102,83.9782,276.1337,6.3498e-07,-2.78e-06,0.0,0 STARLINK-4670,1 53744U 22107AW  24174.41527231 -.00000278  00000-0  63498-6 0  9992,2 53744  53.2157 190.7102 0001111  83.9782 276.1337 15.08834423 99420,6917.897,95.438,540.531,538.994,0.0
53744.0,STARLINK-4670,PAYLOAD,2024-06-23 09:48:46,15.08834909,0.0001143,53.2159,186.2508,90.3514,269.7609,6.4885e-05,7.45e-06,0.0,0 STARLINK-4670,1 53744U 22107AW  24175.40887364  .00000745  00000-0  64885-4 0  9995,2 53744  53.2159 186.2508 0001143  90.3514 269.7609 15.08834909100356,6917.896,95.438,540.552,538.97,0.0
53744.0,STARLINK-4670,PAYLOAD,2024-06-24 04:53:24,15.0883917,0.0001118,53.2156,182.6823,87.2382,272.8738,0.00010911,1.449e-05,0.0,0 STARLINK-4670,1 53744U 22107AW  24176.20375143  .00001449  00000-0  10911-3 0  9993,2 53744  53.2156 182.6823 0001118  87.2382 272.8738 15.08839170 99690,6917.883,95.438,540.521,538.975,0.0
53744.0,STARLINK-4670,PAYLOAD,2024-06-24 08:04:10,15.08840405,0.0001146,53.2158,182.0876,86.3908,273.7215,0.00011929,1.611e-05,0.0,0 STARLINK-4670,1 53744U 22107AW  24176.33623082  .00001611  00000-0  11929-3 0  9996,2 53744  53.2158 182.0876 0001146  86.3908 273.7215 15.08840405100493,6917.879,95.438,540.537,538.951,0.0
53744.0,STARLINK-4670,PAYLOAD,2024-06-25 07:54:57,15.08845821,0.0001203,53.2159,177.6271,82.6394,277.4735,0.00011102,1.48e-05,0.0,0 STARLINK-4670,1 53744U 22107AW  24177.32982725  .00001480  00000-0  11102-3 0  9995,2 53744  53.2159 177.6271 0001203  82.6394 277.4735 15.08845821 99868,6917.863,95.437,540.56,538.895,0.0
53744.0,STARLINK-4670,PAYLOAD,2024-06-26 06:10:20,15.08845171,0.0001251,53.2159,173.4641,81.7712,278.3422,4.6404e-05,4.51e-06,0.0,0 STARLINK-4670,1 53744U 22107AW  24178.25718712  .00000451  00000-0  46404-4 0  9992,2 53744  53.2159 173.4641 0001251  81.7712 278.3422 15.08845171100785,6917.865,95.437,540.595,538.864,0.0
53744.0,STARLINK-4670,PAYLOAD,2024-06-27 06:01:07,15.08843158,0.0001138,53.2154,169.0049,95.759,264.3532,2.1143e-05,4.9e-07,0.0,0 STARLINK-4670,1 53744U 22107AW  24179.25078631  .00000049  00000-0  21143-4 0  9998,2 53744  53.2154 169.0049 0001138  95.7590 264.3532 15.08843158100933,6917.871,95.437,540.523,538.948,0.0
53744.0,STARLINK-4670,PAYLOAD,2024-06-28 05:51:54,15.08842252,0.000112,53.215,164.5437,93.5595,266.5525,7.297e-05,8.74e-06,0.0,0 STARLINK-4670,1 53744U 22107AW  24180.24438486  .00000874  00000-0  72970-4 0  9997,2 53744  53.2150 164.5437 0001120  93.5595 266.5525 15.08842252100303,6917.874,95.437,540.513,538.964,0.0
53744.0,STARLINK-4670,PAYLOAD,2024-06-29 08:53:28,15.08843587,0.0001134,53.2148,159.4881,91.9725,268.1397,9.6933e-05,1.255e-05,0.0,0 STARLINK-4670,1 53744U 22107AW  24181.37046317  .00001255  00000-0  96933-4 0  9999,2 53744  53.2148 159.4881 0001134  91.9725 268.1397 15.08843587100473,6917.869,95.437,540.519,538.95,0.0
53744.0,STARLINK-4670,PAYLOAD,2024-06-29 15:15:00,15.0884837,0.0001198,53.2156,158.2991,92.8232,267.2897,0.00013847,1.917e-05,0.0,0 STARLINK-4670,1 53744U 22107AW  24181.63541864  .00001917  00000-0  13847-3 0  9992,2 53744  53.2156 158.2991 0001198  92.8232 267.2897 15.08848370101295,6917.855,95.437,540.549,538.891,0.0
53744.0,STARLINK-4670,PAYLOAD,2024-06-30 05:33:30,15.08826685,0.0001166,53.2148,155.6227,96.9412,263.1712,-6.4904e-05,-1.32e-05,0.0,0 STARLINK-4670,1 53744U 22107AW  24182.23160071 -.00001320  00000-0 -64904-4 0  9997,2 53744  53.2148 155.6227 0001166  96.9412 263.1712 15.08826685100609,6917.921,95.438,540.593,538.979,0.0
53744.0,STARLINK-4670,PAYLOAD,2024-06-30 08:44:16,15.08829473,0.0001215,53.2151,155.0276,97.2421,262.8709,-4.0008e-05,-9.24e-06,0.0,0 STARLINK-4670,1 53744U 22107AW  24182.36407925 -.00000924  00000-0 -40008-4 0  9991,2 53744  53.2151 155.0276 0001215  97.2421 262.8709 15.08829473101409,6917.913,95.438,540.618,538.937,0.0
53744.0,STARLINK-4670,PAYLOAD,2024-06-30 15:05:48,15.08835109,0.0001297,53.2163,153.8389,95.1681,264.9459,2.5822e-05,1.23e-06,0.0,0 STARLINK-4670,1 53744U 22107AW  24182.62903558  .00000123  00000-0  25822-4 0  9999,2 53744  53.2163 153.8389 0001297  95.1681 264.9459 15.08835109100663,6917.895,95.438,540.658,538.863,0.0
53744.0,STARLINK-4670,PAYLOAD,2024-07-01 06:59:39,15.08838336,0.0001351,53.2154,150.8649,91.002,269.1127,9.7648e-05,1.266e-05,0.0,0 STARLINK-4670,1 53744U 22107AW  24183.29143419  .00001266  00000-0  97648-4 0  9999,2 53744  53.2154 150.8649 0001351  91.0020 269.1127 15.08838336101544,6917.885,95.438,540.685,538.816,0.0
53744.0,STARLINK-4670,PAYLOAD,2024-07-01 14:56:35,15.08847462,0.000133,53.2155,149.378,85.6844,274.43,0.00024284,3.58e-05,0.0,0 STARLINK-4670,1 53744U 22107AW  24183.62263061  .00003580  00000-0  24284-3 0  9998,2 53744  53.2155 149.3780 0001330  85.6844 274.4300 15.08847462100815,6917.858,95.437,540.643,538.803,0.0
53744.0,STARLINK-4670,PAYLOAD,2024-07-02 05:15:04,15.08839726,0.0001264,53.2144,146.7019,92.7157,267.398,0.00021742,3.174e-05,0.0,0 STARLINK-4670,1 53744U 22107AW  24184.21879692  .00003174  00000-0  21742-3 0  9992,2 53744  53.2144 146.7019 0001264  92.7157 267.3980 15.08839726100900,6917.881,95.438,540.621,538.872,0.0
53744.0,STARLINK-4670,PAYLOAD,2024-07-02 06:50:27,15.08843761,0.0001298,53.2146,146.4044,92.2216,267.8924,0.00029568,4.421e-05,0.0,0 STARLINK-4670,1 53744U 22107AW  24184.28503593  .00004421  00000-0  29568-3 0  9993,2 53744  53.2146 146.4044 0001298  92.2216 267.8924 15.08843761101699,6917.869,95.437,540.632,538.836,0.0
53744.0,STARLINK-4670,PAYLOAD,2024-07-02 21:08:55,15.08848186,0.0001378,53.2109,143.7312,80.1097,280.005,0.00030175,4.519e-05,0.0,0 STARLINK-4670,1 53744U 22107AW  24184.88119387  .00004519  00000-0  30175-3 0  9997,2 53744  53.2109 143.7312 0001378  80.1097 280.0050 15.08848186101781,6917.855,95.437,540.674,538.767,0.0
53744.0,STARLINK-4670,PAYLOAD,2024-07-03 06:41:14,15.08845722,0.000131,53.2144,141.9431,89.015,271.0992,0.00034069,5.139e-05,0.0,0 STARLINK-4670,1 53744U 22107AW  24185.27863436  .00005139  00000-0  34069-3 0  9997,2 53744  53.2144 141.9431 0001310  89.0150 271.0992 15.08845722101065,6917.863,95.437,540.634,538.822,0.0
53744.0,STARLINK-4670,PAYLOAD,2024-07-03 14:38:09,15.08851566,0.0001299,53.2144,140.4565,88.458,271.6561,0.00054898,8.463e-05,0.0,0 STARLINK-4670,1 53744U 22107AW  24185.60983300  .00008463  00000-0  54898-3 0  9992,2 53744  53.2144 140.4565 0001299  88.4580 271.6561 15.08851566101895,6917.845,95.437,540.609,538.811,0.0
53744.0,STARLINK-4670,PAYLOAD,2024-07-04 03:21:14,15.08842035,0.0001461,53.2138,138.0751,99.8545,260.2612,0.00039499,6.004e-05,0.0,0 STARLINK-4670,1 53744U 22107AW  24186.13975605  .00006004  00000-0  39499-3 0  9999,2 53744  53.2138 138.0751 0001461  99.8545 260.2612 15.08842035101191,6917.874,95.437,540.75,538.728,0.0
53744.0,STARLINK-4670,PAYLOAD,2024-07-04 06:32:01,15.08844892,0.0001453,53.2142,137.4809,98.6723,261.4433,0.00047542,7.287e-05,0.0,0 STARLINK-4670,1 53744U 22107AW  24186.27223562  .00007287  00000-0  47542-3 0  9994,2 53744  53.2142 137.4809 0001453  98.6723 261.4433 15.08844892101994,6917.865,95.437,540.736,538.725,0.0
53744.0,STARLINK-4670,PAYLOAD,2024-07-05 03:12:02,15.08839914,0.000163,53.2168,133.6164,100.4765,259.6411,0.00010018,1.307e-05,0.0,0 STARLINK-4670,1 53744U 22107AW  24187.13335772  .00001307  00000-0  10018-3 0  9992,2 53744  53.2168 133.6164 0001630 100.4765 259.6411 15.08839914101342,6917.881,95.438,540.873,538.618,0.0
53744.0,STARLINK-4670,PAYLOAD,2024-07-05 06:22:48,15.08841507,0.00016,53.2168,133.0211,101.9734,258.1438,9.9245e-05,1.292e-05,0.0,0 STARLINK-4670,1 53744U 22107AW  24187.26583685  .00001292  00000-0  99245-4 0  9997,2 53744  53.2168 133.0211 0001600 101.9734 258.1438 15.08841507102141,6917.876,95.437,540.848,538.634,0.0
